{"type": "FeatureCollection", "features": [ {"type": "Feature", "properties": {"norad_id": 66757, "name": "TRANSPORTER-15 CV", "group": "last-30-days", "lat": 81.30077335912988, "lon": -53.43898672866567, "alt_km": 503.8407575669071, "timestamp": "2025-12-22T05:49:02.185924+00:00", "meta": {"OBJECT_NAME": "TRANSPORTER-15 CV", "OBJECT_ID": "2025-276CV", "EPOCH": "2025-12-21T18:19:43.097664", "MEAN_MOTION": 15.18048409, "ECCENTRICITY": 0.0001542, "INCLINATION": 97.4429, "RA_OF_ASC_NODE": 67.3967, "ARG_OF_PERICENTER": 161.3201, "MEAN_ANOMALY": 198.8089, "EPHEMERIS_TYPE": 0, "CLASSIFICATION_TYPE": "U", "NORAD_CAT_ID": 66757, "ELEMENT_SET_NO": 999, "REV_AT_EPOCH": 349, "BSTAR": 0.00043207, "MEAN_MOTION_DOT": 8.734e-05, "MEAN_MOTION_DDOT": 0}, "tle": {"line1": "1 66757U 25276CV  25355.76369326  .00008734  00000+0  43207-3 0  9995", "line2": "2 66757  97.4429  67.3967 0001542 161.3201 198.8089 15.18048409  3491"}}, "geometry": {"type": "Point", "coordinates": [-53.43898672866567, 81.30077335912988]}}, {"type": "Feature", "properties": {"norad_id": 66758, "name": "TRANSPORTER-15 CW", "group": "last-30-days", "lat": 80.45130378776886, "lon": -61.17172183320511, "alt_km": 503.69576704267547, "timestamp": "2025-12-22T05:49:02.185934+00:00", "meta": {"OBJECT_NAME": "TRANSPORTER-15 CW", "OBJECT_ID": "2025-276CW", "EPOCH": "2025-12-21T18:19:19.932960", "MEAN_MOTION": 15.1805543, "ECCENTRICITY": 0.00012, "INCLINATION": 97.4397, "RA_OF_ASC_NODE": 67.3876, "ARG_OF_PERICENTER": 140.865, "MEAN_ANOMALY": 219.2671, "EPHEMERIS_TYPE": 0, "CLASSIFICATION_TYPE": "U", "NORAD_CAT_ID": 66758, "ELEMENT_SET_NO": 999, "REV_AT_EPOCH": 349, "BSTAR": 0.00042368, "MEAN_MOTION_DOT": 8.565e-05, "MEAN_MOTION_DDOT": 0}, "tle": {"line1": "1 66758U 25276CW  25355.76342515  .00008565  00000+0  42368-3 0  9996", "line2": "2 66758  97.4397  67.3876 0001200 140.8650 219.2671 15.18055430  3493"}}, "geometry": {"type": "Point", "coordinates": [-61.17172183320511, 80.45130378776886]}}, {"type": "Feature", "properties": {"norad_id": 66759, "name": "TRANSPORTER-15 CX", "group": "last-30-days", "lat": 73.58296735434918, "lon": -85.81851602147151, "alt_km": 503.35597865245836, "timestamp": "2025-12-22T05:49:02.185944+00:00", "meta": {"OBJECT_NAME": "TRANSPORTER-15 CX", "OBJECT_ID": "2025-276CX", "EPOCH": "2025-12-21T18:17:06.641088", "MEAN_MOTION": 15.18190503, "ECCENTRICITY": 0.0001591, "INCLINATION": 97.4388, "RA_OF_ASC_NODE": 67.385, "ARG_OF_PERICENTER": 141.078, "MEAN_ANOMALY": 219.0569, "EPHEMERIS_TYPE": 0, "CLASSIFICATION_TYPE": "U", "NORAD_CAT_ID": 66759, "ELEMENT_SET_NO": 999, "REV_AT_EPOCH": 349, "BSTAR": 0.00044717, "MEAN_MOTION_DOT": 9.079e-05, "MEAN_MOTION_DDOT": 0}, "tle": {"line1": "1 66759U 25276CX  25355.76188242  .00009079  00000+0  44717-3 0  9993", "line2": "2 66759  97.4388  67.3850 0001591 141.0780 219.0569 15.18190503  3491"}}, "geometry": {"type": "Point", "coordinates": [-85.81851602147151, 73.58296735434918]}}, {"type": "Feature", "properties": {"norad_id": 66760, "name": "TRANSPORTER-15 CY", "group": "last-30-days", "lat": 71.66331640806784, "lon": -88.91362803244026, "alt_km": 503.39902775290557, "timestamp": "2025-12-22T05:49:02.185960+00:00", "meta": {"OBJECT_NAME": "TRANSPORTER-15 CY", "OBJECT_ID": "2025-276CY", "EPOCH": "2025-12-21T18:16:32.715264", "MEAN_MOTION": 15.18173362, "ECCENTRICITY": 0.0001533, "INCLINATION": 97.4401, "RA_OF_ASC_NODE": 67.3916, "ARG_OF_PERICENTER": 116.0419, "MEAN_ANOMALY": 244.0973, "EPHEMERIS_TYPE": 0, "CLASSIFICATION_TYPE": "U", "NORAD_CAT_ID": 66760, "ELEMENT_SET_NO": 999, "REV_AT_EPOCH": 349, "BSTAR": 0.00040978, "MEAN_MOTION_DOT": 8.31e-05, "MEAN_MOTION_DDOT": 0}, "tle": {"line1": "1 66760U 25276CY  25355.76148976  .00008310  00000+0  40978-3 0  9997", "line2": "2 66760  97.4401  67.3916 0001533 116.0419 244.0973 15.18173362  3490"}}, "geometry": {"type": "Point", "coordinates": [-88.91362803244026, 71.66331640806784]}}, {"type": "Feature", "properties": {"norad_id": 66761, "name": "TRANSPORTER-15 CZ", "group": "last-30-days", "lat": 59.212067346770034, "lon": -99.4619580181046, "alt_km": 503.70994307944056, "timestamp": "2025-12-22T05:49:02.185971+00:00", "meta": {"OBJECT_NAME": "TRANSPORTER-15 CZ", "OBJECT_ID": "2025-276CZ", "EPOCH": "2025-12-21T19:48:06.223392", "MEAN_MOTION": 15.18445579, "ECCENTRICITY": 0.0001573, "INCLINATION": 97.4399, "RA_OF_ASC_NODE": 67.4586, "ARG_OF_PERICENTER": 124.538, "MEAN_ANOMALY": 235.6003, "EPHEMERIS_TYPE": 0, "CLASSIFICATION_TYPE": "U", "NORAD_CAT_ID": 66761, "ELEMENT_SET_NO": 999, "REV_AT_EPOCH": 350, "BSTAR": 0.00095884, "MEAN_MOTION_DOT": 0.00019717, "MEAN_MOTION_DDOT": 0}, "tle": {"line1": "1 66761U 25276CZ  25355.82507203  .00019717  00000+0  95884-3 0  9996", "line2": "2 66761  97.4399  67.4586 0001573 124.5380 235.6003 15.18445579  3500"}}, "geometry": {"type": "Point", "coordinates": [-99.4619580181046, 59.212067346770034]}}, {"type": "Feature", "properties": {"norad_id": 66762, "name": "HYDROGNSS-1", "group": "last-30-days", "lat": 35.9004215809932, "lon": 62.40846068818558, "alt_km": 512.017115068862, "timestamp": "2025-12-22T05:49:02.185983+00:00", "meta": {"OBJECT_NAME": "HYDROGNSS-1", "OBJECT_ID": "2025-276DA", "EPOCH": "2025-12-21T18:34:42.854304", "MEAN_MOTION": 15.17287001, "ECCENTRICITY": 9.56e-05, "INCLINATION": 97.4413, "RA_OF_ASC_NODE": 67.3776, "ARG_OF_PERICENTER": 272.2189, "MEAN_ANOMALY": 87.8935, "EPHEMERIS_TYPE": 0, "CLASSIFICATION_TYPE": "U", "NORAD_CAT_ID": 66762, "ELEMENT_SET_NO": 999, "REV_AT_EPOCH": 349, "BSTAR": 0.00025838, "MEAN_MOTION_DOT": 5.081e-05, "MEAN_MOTION_DDOT": 0}, "tle": {"line1": "1 66762U 25276DA  25355.77410711  .00005081  00000+0  25838-3 0  9999", "line2": "2 66762  97.4413  67.3776 0000956 272.2189  87.8935 15.17287001  3492"}}, "geometry": {"type": "Point", "coordinates": [62.40846068818558, 35.9004215809932]}}, {"type": "Feature", "properties": {"norad_id": 66763, "name": "HYDROGNSS-2", "group": "last-30-days", "lat": 46.481453442592695, "lon": 59.93423131283136, "alt_km": 510.55196494219854, "timestamp": "2025-12-22T05:49:02.185995+00:00", "meta": {"OBJECT_NAME": "HYDROGNSS-2", "OBJECT_ID": "2025-276DB", "EPOCH": "2025-12-21T18:31:56.286336", "MEAN_MOTION": 15.17413033, "ECCENTRICITY": 0.0001401, "INCLINATION": 97.4417, "RA_OF_ASC_NODE": 67.3841, "ARG_OF_PERICENTER": 247.4725, "MEAN_ANOMALY": 112.636, "EPHEMERIS_TYPE": 0, "CLASSIFICATION_TYPE": "U", "NORAD_CAT_ID": 66763, "ELEMENT_SET_NO": 999, "REV_AT_EPOCH": 349, "BSTAR": 0.00015279, "MEAN_MOTION_DOT": 2.988e-05, "MEAN_MOTION_DDOT": 0}, "tle": {"line1": "1 66763U 25276DB  25355.77217924  .00002988  00000+0  15279-3 0  9992", "line2": "2 66763  97.4417  67.3841 0001401 247.4725 112.6360 15.17413033  3491"}}, "geometry": {"type": "Point", "coordinates": [59.93423131283136, 46.481453442592695]}}, {"type": "Feature", "properties": {"norad_id": 66764, "name": "TRANSPORTER-15 DC", "group": "last-30-days", "lat": 69.04720914262727, "lon": 47.8929221469443, "alt_km": 507.0101382562507, "timestamp": "2025-12-22T05:49:02.186006+00:00", "meta": {"OBJECT_NAME": "TRANSPORTER-15 DC", "OBJECT_ID": "2025-276DC", "EPOCH": "2025-12-21T20:00:50.647392", "MEAN_MOTION": 15.17678714, "ECCENTRICITY": 0.0001962, "INCLINATION": 97.4411, "RA_OF_ASC_NODE": 67.4488, "ARG_OF_PERICENTER": 200.5591, "MEAN_ANOMALY": 159.5564, "EPHEMERIS_TYPE": 0, "CLASSIFICATION_TYPE": "U", "NORAD_CAT_ID": 66764, "ELEMENT_SET_NO": 999, "REV_AT_EPOCH": 350, "BSTAR": 0.00023327, "MEAN_MOTION_DOT": 4.633e-05, "MEAN_MOTION_DDOT": 0}, "tle": {"line1": "1 66764U 25276DC  25355.83391953  .00004633  00000+0  23327-3 0  9997", "line2": "2 66764  97.4411  67.4488 0001962 200.5591 159.5564 15.17678714  3504"}}, "geometry": {"type": "Point", "coordinates": [47.8929221469443, 69.04720914262727]}}, {"type": "Feature", "properties": {"norad_id": 66765, "name": "TRANSPORTER-15 DD", "group": "last-30-days", "lat": 41.844381860677984, "lon": -105.39311585377388, "alt_km": 505.27384824690034, "timestamp": "2025-12-22T05:49:02.186018+00:00", "meta": {"OBJECT_NAME": "TRANSPORTER-15 DD", "OBJECT_ID": "2025-276DD", "EPOCH": "2025-12-21T18:08:39.180192", "MEAN_MOTION": 15.18694135, "ECCENTRICITY": 0.0001762, "INCLINATION": 97.4425, "RA_OF_ASC_NODE": 67.4055, "ARG_OF_PERICENTER": 120.8088, "MEAN_ANOMALY": 239.332, "EPHEMERIS_TYPE": 0, "CLASSIFICATION_TYPE": "U", "NORAD_CAT_ID": 66765, "ELEMENT_SET_NO": 999, "REV_AT_EPOCH": 349, "BSTAR": 0.00060156, "MEAN_MOTION_DOT": 0.00012422, "MEAN_MOTION_DDOT": 0}, "tle": {"line1": "1 66765U 25276DD  25355.75600903  .00012422  00000+0  60156-3 0  9993", "line2": "2 66765  97.4425  67.4055 0001762 120.8088 239.3320 15.18694135  3494"}}, "geometry": {"type": "Point", "coordinates": [-105.39311585377388, 41.844381860677984]}}, {"type": "Feature", "properties": {"norad_id": 66766, "name": "TRANSPORTER-15 DE", "group": "last-30-days", "lat": 55.836762549362604, "lon": -101.04167061828188, "alt_km": 504.28260687546117, "timestamp": "2025-12-22T05:49:02.186029+00:00", "meta": {"OBJECT_NAME": "TRANSPORTER-15 DE", "OBJECT_ID": "2025-276DE", "EPOCH": "2025-12-21T18:12:16.379424", "MEAN_MOTION": 15.18390952, "ECCENTRICITY": 0.0001954, "INCLINATION": 97.4369, "RA_OF_ASC_NODE": 67.3855, "ARG_OF_PERICENTER": 90.4793, "MEAN_ANOMALY": 269.6665, "EPHEMERIS_TYPE": 0, "CLASSIFICATION_TYPE": "U", "NORAD_CAT_ID": 66766, "ELEMENT_SET_NO": 999, "REV_AT_EPOCH": 349, "BSTAR": 0.00038922, "MEAN_MOTION_DOT": 7.939e-05, "MEAN_MOTION_DDOT": 0}, "tle": {"line1": "1 66766U 25276DE  25355.75852291  .00007939  00000+0  38922-3 0  9996", "line2": "2 66766  97.4369  67.3855 0001954  90.4793 269.6665 15.18390952  3495"}}, "geometry": {"type": "Point", "coordinates": [-101.04167061828188, 55.836762549362604]}}]}